CALSPHERE 1             
1 00900U 64063C   21030.55010111  .00000223  00000+0  22845-3 0  9998
2 00900  90.1566  32.1127 0029379  93.4953  30.9298 13.73476902801627
CALSPHERE 2             
1 00902U 64063E   21030.54170506  .00000034  00000+0  37894-4 0  9995
2 00902  90.1670  34.8727 0018863 161.8029 316.8706 13.52691249590782
LCS 1                   
1 01361U 65034C   21030.54578187 -.00000008  00000+0 -21387-2 0  9992
2 01361  32.1381 159.3510 0009075 251.5536 108.3975  9.89298813 15425
TEMPSAT 1               
1 01512U 65065E   21030.55953258  .00000013  00000+0  81676-5 0  9995
2 01512  89.8824 223.4922 0069954   4.1726  55.7332 13.33434725698358
CALSPHERE 4(A)          
1 01520U 65065H   21030.52128913  .00000070  00000+0  11976-3 0  9990
2 01520  90.0251 129.7688 0068779 240.4556 130.2059 13.35833396700518
OPS 5712 (P/L 160)      
1 02826U 67053A   21030.49978468  .00000498  00000+0  14632-3 0  9999
2 02826  69.9284  27.5107 0008654 304.6559  55.3758 14.49354971779839
OPS 5712 (P/L 153)      
1 02874U 67053H   21030.35224066 -.00000029  00000+0  17534-4 0  9991
2 02874  69.9752   2.7042 0009931 237.3952 122.6195 13.96362080732623
SURCAL 150B             
1 02909U 67053J   21030.50926717  .00000753  00000+0  16306-3 0  9997
2 02909  69.9478  40.5503 0004401 314.7483  45.3298 14.62123303790069
RIGIDSPHERE 2 (LCS 4)   
1 05398U 71067E   21030.46135721  .00000160  00000+0  50200-4 0  9998
2 05398  87.6290 161.7707 0061720 243.3235 116.1634 14.33955777592173
